GLOBALSTAR M075         
1 37192U 10054E   24115.91811650 -.00000062  00000+0  23421-3 0  9999
2 37192  51.9975  15.0738 0000818  75.9791   4.4604 12.62273106623187
GLOBALSTAR M073         
1 37193U 10054F   24116.45870135 -.00000087  00000+0  95328-4 0  9996
2 37193  52.0058 286.9293 0000867 116.7897 261.2059 12.62264362625130
GLOBALSTAR M083         
1 37739U 11033A   24116.56552081 -.00000066  00000+0  20802-3 0  9990
2 37739  51.9857 235.9046 0000612  97.3257 347.0736 12.62269290594475
GLOBALSTAR M088         
1 37740U 11033B   24116.47384900 -.00000070  00000+0  18912-3 0  9999
2 37740  51.9710 142.0264 0000390  75.0666  73.0846 12.62267641589936
GLOBALSTAR M091         
1 37741U 11033C   24116.15809142 -.00000098  00000+0  29732-4 0  9998
2 37741  51.9982 105.7941 0000619  50.0573  42.2408 12.62261954590654
GLOBALSTAR M085         
1 37742U 11033D   24115.28975073 -.00000093  00000+0  57670-4 0  9996
2 37742  51.9878  59.8461 0000767  56.9438 107.5104 12.62269912590799
GLOBALSTAR M081         
1 37743U 11033E   24115.06019661 -.00000104  00000+0 -28749-5 0  9995
2 37743  51.9967  63.0737 0000854  68.1855  12.4673 12.62264435590911
GLOBALSTAR M089         
1 37744U 11033F   24116.23014769 -.00000062  00000+0  23538-3 0  9991
2 37744  51.9957  13.8214 0000693 107.4491  71.2649 12.62262563592152
